24793,IRIDIUM 7,1997,100.29,-1.0,-,86.39,Inactive,0,LEO,USA,USA,Unknown,Unknown,Unknown,1 24793U 97020B   25050.54398091  .00000915  00000+0  30985-3 0  9996,2 24793  86.3942 226.1569 0002249  97.3949 262.7503 14.35769632455014,14.35769632,0.0002249,LEO
24795,IRIDIUM 5,1997,96.47,-1.0,-,86.39,Inactive,0,LEO,USA,USA,Unknown,Unknown,Unknown,1 24795U 97020D   25050.73334790  .00010174  00000+0  87170-3 0  9991,2 24795  86.3931 137.8363 0112153 198.5446 161.1682 14.92600312467965,14.92600312,0.0112153,LEO
24796,IRIDIUM 4,1997,100.23,-1.0,-,86.39,Inactive,0,LEO,USA,USA,Unknown,Unknown,Unknown,1 24796U 97020E   25050.53191151  .00000905  00000+0  30081-3 0  9992,2 24796  86.3945 223.1164 0002012  95.5454 264.5972 14.36679931455571,14.36679931,0.0002012,LEO
24836,IRIDIUM 914,1997,99.95,-1.0,-,86.39,Inactive,0,LEO,Kazakhstan,USA,Unknown,Unknown,Unknown,1 24836U 97030A   25050.58457380  .00001096  00000+0  33739-3 0  9997,2 24836  86.3906 232.0525 0000838 141.3630 218.7630 14.40665481590193,14.40665481,8.38e-05,LEO
24841,IRIDIUM 16,1997,100.1,-1.0,-,86.4,Inactive,0,LEO,Kazakhstan,USA,Unknown,Unknown,Unknown,1 24841U 97030F   25050.57717488  .00000821  00000+0  26222-3 0  9994,2 24841  86.3978 254.6803 0004292  90.9421 269.2269 14.38522079450097,14.38522079,0.0004292,LEO
24842,IRIDIUM 911,1997,99.49,-1.0,-,86.44,Inactive,0,LEO,Kazakhstan,USA,Unknown,Unknown,Unknown,1 24842U 97030G   25050.80786544  .00001166  00000+0  31243-3 0  9992,2 24842  86.4404 253.4741 0015861 124.4807 235.7897 14.47376014458084,14.47376014,0.0015861,LEO
24870,IRIDIUM 17,1997,100.16,-1.0,-,86.39,Inactive,0,LEO,USA,USA,Unknown,Unknown,Unknown,1 24870U 97034B   25050.63095965  .00000819  00000+0  26651-3 0  9999,2 24870  86.3925 284.2182 0003421  65.7646 294.3909 14.37639923446699,14.37639923,0.0003421,LEO
24871,IRIDIUM 920,1997,99.91,-1.0,-,86.39,Inactive,0,LEO,USA,USA,Unknown,Unknown,Unknown,1 24871U 97034C   25050.62864186  .00000789  00000+0  23748-3 0  9998,2 24871  86.3920 263.6956 0013495 106.7909 253.4773 14.41341091449649,14.41341091,0.0013495,LEO
